ACS3                    
1 59588U 24077B   24272.08428381  .00026905  00000+0  30598-1 0  9993
2 59588  97.4352 316.4137 0047933 195.7637 164.2025 13.69462053 21479
